TEVEL2-4                
1 63213U 25052D   26068.69417973  .00020990  00000+0  70363-3 0  9998
2 63213  97.4009 325.1237 0004733  95.3468 264.8313 15.30925813 54879
STARLINK-35679          
1 66408U 25257AE  26068.68637685  .00033508  00000+0  11386-2 0  9995
2 66408  53.1584 216.9791 0000886  66.6156 293.4938 15.30194471 19732
